,Name,City,Country,IATA,Latitude,Longitude,Altitude,Type
0,Comodoro Pierrestegui Airport,Concordia,Argentina,COC,-31.2969,-57.9966,112.0,airport
1,Gualeguaychu Airport,Gualeguaychu,Argentina,GHU,-33.0103,-58.6131,75.0,airport
2,Junin Airport,Junin,Argentina,JNI,-34.5459,-60.9306,262.0,airport
3,General Urquiza Airport,Parana,Argentina,PRA,-31.7948,-60.4804,242.0,airport
4,Islas Malvinas Airport,Rosario,Argentina,ROS,-32.9036,-60.785,85.0,airport
5,Sauce Viejo Airport,Santa Fe,Argentina,SFN,-31.7117,-60.8117,55.0,airport
6,Jorge Newbery Airpark,Buenos Aires,Argentina,AEP,-34.5592,-58.4156,18.0,airport
7,Ingeniero Ambrosio Taravella Airport,Cordoba,Argentina,COR,-31.323601,-64.208,1604.0,airport
8,Chamical Airport,Gobernador Gordillo,Argentina,\N,-30.34530067,-66.29360198,1502.0,airport
9,San Fernando Airport,San Fernando,Argentina,FDO,-34.4532,-58.5896,10.0,airport
10,Mariano Moreno Airport,Jose C. Paz,Argentina,\N,-34.5606,-58.7896,105.0,airport
11,La Plata Airport,La Plata,Argentina,LPG,-34.9722,-57.8947,72.0,airport
12,Moron Airport,Moron,Argentina,\N,-34.6763,-58.6428,95.0,airport
13,El Palomar Airport,El Palomar,Argentina,EPA,-34.6099,-58.6126,59.0,airport
14,Chos Malal Airport,Chosmadal,Argentina,HOS,-37.4446983337,-70.2225036621,2788.0,airport
15,Dr. Arturo H. Illia Airport,Fuerte Gral Roca,Argentina,GNR,-39.0007019043,-67.6204986572,852.0,airport
16,El Plumerillo Airport,Mendoza,Argentina,MDZ,-32.8316993713,-68.7929000854,2310.0,airport
17,Comodoro D.R. Salomón Airport,Malargue,Argentina,LGS,-35.493598938,-69.5743026733,4685.0,airport
18,Suboficial Ay Santiago Germano Airport,San Rafael,Argentina,AFA,-34.588299,-68.4039,2470.0,airport
19,Catamarca Airport,Catamarca,Argentina,CTC,-28.5956001282,-65.751701355,1522.0,airport
20,Vicecomodoro Angel D. La Paz Aragonés Airport,Santiago Del Estero,Argentina,SDE,-27.7655563354,-64.3099975586,656.0,airport
21,Tinogasta Airport,Tinogasta,Argentina,\N,-28.0377998352,-67.5802993774,3968.0,airport
22,Capitan V A Almonacid Airport,La Rioja,Argentina,IRJ,-29.3815994263,-66.7957992554,1437.0,airport
23,Chilecito Airport,Chilecito,Argentina,\N,-29.2238998413,-67.4389038086,3099.0,airport
24,Teniente Benjamin Matienzo Airport,Tucuman,Argentina,TUC,-26.8409,-65.104897,1493.0,airport
25,Domingo Faustino Sarmiento Airport,San Juan,Argentina,UAQ,-31.571501,-68.418198,1958.0,airport
26,Area De Material Airport,Rio Cuarto,Argentina,RCU,-33.0850982666,-64.2612991333,1380.0,airport
27,Villa Dolores Airport,Villa Dolores,Argentina,VDR,-31.9451999664,-65.1463012695,1847.0,airport
28,La Quiaca Airport,Laboulaye,Argentina,\N,-22.1506004333,-65.57749938959999,11414.0,airport
29,Marcos Juarez Airport,Marcos Juarez,Argentina,\N,-32.6836,-62.157801,360.0,airport
30,Villa Reynolds Airport,Villa Reynolds,Argentina,VME,-33.7299003601,-65.3873977661,1591.0,airport
31,Brigadier Mayor D Cesar Raul Ojeda Airport,San Luis,Argentina,LUQ,-33.2732009888,-66.3563995361,2328.0,airport
32,Corrientes Airport,Corrientes,Argentina,CNQ,-27.4455,-58.7619,202.0,airport
33,Resistencia International Airport,Resistencia,Argentina,RES,-27.45,-59.0561,173.0,airport
34,Formosa Airport,Formosa,Argentina,FMA,-26.2127,-58.2281,193.0,airport
35,Cataratas Del Iguazú International Airport,Iguazu Falls,Argentina,IGR,-25.737301,-54.4734,916.0,airport
36,Paso De Los Libres Airport,Paso De Los Libres,Argentina,AOL,-29.6894,-57.1521,230.0,airport
37,Monte Caseros Airport,Monte Caseros,Argentina,MCS,-30.2719,-57.6402,170.0,airport
38,Libertador Gral D Jose De San Martin Airport,Posadas,Argentina,PSS,-27.3858,-55.9707,430.0,airport
39,Termal Airport,Presidencia R.s.pena,Argentina,PRQ,-26.753611,-60.492222,308.0,airport
40,Martin Miguel De Guemes International Airport,Salta,Argentina,SLA,-24.8560009003,-65.4861984253,4088.0,airport
41,Gobernador Horacio Guzman International Airport,Jujuy,Argentina,JUJ,-24.392799,-65.097801,3019.0,airport
42,Orán Airport,Oran,Argentina,ORA,-23.1527996063,-64.3292007446,1171.0,airport
43,Laboulaye Airport,La Quiaca,Argentina,\N,-34.1353988647,-63.36230087279999,449.0,airport
44,El Dorado Airport,El Dorado,Argentina,ELO,-26.3974990845,-54.5746994019,685.0,airport
45,Goya Airport,Goya,Argentina,OYA,-29.1058,-59.2189,128.0,airport
46,Oberá Airport,Obera,Argentina,\N,-27.5181999207,-55.1241989136,1125.0,airport
47,Reconquista Airport,Reconquista,Argentina,RCQ,-29.2103,-59.68,160.0,airport
48,Curuzu Cuatia Airport,Curuzu Cuatia,Argentina,UZU,-29.7706,-57.9789,229.0,airport
49,El Bolson Airport,El Bolson,Argentina,EHL,-41.9431991577,-71.5323028564,1141.0,airport
50,General E. Mosconi Airport,Comodoro Rivadavia,Argentina,CRD,-45.7853,-67.4655,189.0,airport
51,Brigadier Antonio Parodi Airport,Esquel,Argentina,EQS,-42.908000946,-71.139503479,2621.0,airport
52,Almirante Marco Andres Zar Airport,Trelew,Argentina,REL,-43.2105,-65.2703,141.0,airport
53,Gobernador Castello Airport,Viedma,Argentina,VDM,-40.8692,-63.0004,20.0,airport
54,El Tehuelche Airport,Puerto Madryn,Argentina,PMY,-42.7592,-65.1027,427.0,airport
55,Puerto Deseado Airport,Puerto Deseado,Argentina,PUD,-47.7353,-65.9041,268.0,airport
56,Hermes Quijada International Airport,Rio Grande,Argentina,RGA,-53.7777,-67.7494,65.0,airport
57,Piloto Civil N. Fernández Airport,Rio Gallegos,Argentina,RGL,-51.6089,-69.3126,61.0,airport
58,Malvinas Argentinas Airport,Ushuaia,Argentina,USH,-54.8433,-68.2958,102.0,airport
59,Capitan D Daniel Vazquez Airport,San Julian,Argentina,ULA,-49.3068,-67.8026,203.0,airport
60,Perito Moreno Airport,Perito Moreno,Argentina,PMQ,-46.537899,-70.978699,1410.0,airport
61,Santa Cruz Airport,Santa Cruz,Argentina,RZA,-50.0165,-68.5792,364.0,airport
62,Comandante Espora Airport,Bahia Blanca,Argentina,BHI,-38.725,-62.1693,246.0,airport
63,Brigadier D.H.E. Ruiz Airport,Colonel Suarez,Argentina,CSZ,-37.446098,-61.889301,767.0,airport
64,Olavarria Airport,Olavarria,Argentina,OVR,-36.8899993896,-60.2165985107,551.0,airport
65,General Pico Airport,General Pico,Argentina,GPO,-35.6962013245,-63.7583007812,459.0,airport
66,Tres Arroyos Airport,Tres Arroyos,Argentina,OYO,-38.3869,-60.3297,400.0,airport
67,Bolivar Airport,Bolivar,Argentina,\N,-36.1866,-61.0764,308.0,airport
68,Ástor Piazzola International Airport,Mar Del Plata,Argentina,MDQ,-37.9342,-57.5733,72.0,airport
69,Presidente Peron Airport,Neuquen,Argentina,NQN,-38.949001,-68.155701,895.0,airport
70,Comodoro Pedro Zanni Airport,Pehuajo,Argentina,PEH,-35.8446,-61.8576,278.0,airport
71,Santa Rosa Airport,Santa Rosa,Argentina,RSA,-36.588299,-64.275703,630.0,airport
72,San Carlos De Bariloche Airport,San Carlos De Bariloche,Argentina,BRC,-41.151199,-71.157501,2774.0,airport
73,Héroes De Malvinas Airport,Tandil,Argentina,TDL,-37.2374000549,-59.2279014587,574.0,airport
74,Villa Gesell Airport,Villa Gesell,Argentina,VLG,-37.2354,-57.0292,32.0,airport
75,Cutral-Co Airport,Cutralco,Argentina,CUT,-38.9397010803,-69.2646026611,2132.0,airport
76,Aviador C. Campos Airport,San Martin Des Andes,Argentina,CPC,-40.075401,-71.137299,2569.0,airport
77,Conceição do Araguaia Airport,Conceicao Do Araguaia,Brazil,CDJ,-8.348349571228027,-49.30149841308594,653.0,airport
78,Campo Délio Jardim de Mattos Airport,Rio De Janeiro,Brazil,\N,-22.875099,-43.384701,110.0,airport
79,Amapá Airport,Amapa,Brazil,\N,2.07751,-50.8582,45.0,airport
80,Araraquara Airport,Araracuara,Brazil,AQA,-21.8120002747,-48.1329994202,2334.0,airport
81,Santa Maria Airport,Aracaju,Brazil,AJU,-10.984000206,-37.0703010559,23.0,airport
82,Piloto Osvaldo Marques Dias Airport,Alta Floresta,Brazil,AFL,-9.8663892746,-56.1049995422,948.0,airport
83,Araçatuba Airport,Aracatuba,Brazil,ARU,-21.1413002014,-50.4247016907,1361.0,airport
84,Val de Cans/Júlio Cezar Ribeiro International Airport,Belem,Brazil,BEL,-1.3792500495900002,-48.4762992859,54.0,airport
85,Comandante Gustavo Kraemer Airport,Bage,Brazil,BGX,-31.39049911499,-54.112201690674,600.0,airport
86,Pampulha - Carlos Drummond de Andrade Airport,Belo Horizonte,Brazil,PLU,-19.85120010375977,-43.95059967041016,2589.0,airport
87,Bacacheri Airport,Curitiba,Brazil,BFH,-25.4050998688,-49.23199844359999,3057.0,airport
88,Major Brigadeiro Doorgal Borges Airport,Barbacena,Brazil,\N,-21.2672,-43.761101,3657.0,airport
89,Presidente Juscelino Kubistschek International Airport,Brasilia,Brazil,BSB,-15.86916732788086,-47.92083358764648,3497.0,airport
90,Bauru Airport,Bauru,Brazil,BAU,-22.3449993134,-49.0537986755,2025.0,airport
91,Atlas Brasil Cantanhede Airport,Boa Vista,Brazil,BVB,2.84138894081,-60.6922225952,276.0,airport
92,Barra do Garças Airport,Barra Do Garcas,Brazil,BPG,-15.8613004684,-52.3889007568,1147.0,airport
93,Cascavel Airport,Cascavel,Brazil,CAC,-25.0002994537,-53.5008010864,2473.0,airport
94,Cachimbo Airport,Itaituba,Brazil,\N,-9.33393955231,-54.9654006958,1762.0,airport
95,Tancredo Neves International Airport,Belo Horizonte,Brazil,CNF,-19.62444305419922,-43.97194290161133,2715.0,airport
96,Campo Grande Airport,Campo Grande,Brazil,CGR,-20.4687004089,-54.6725006104,1833.0,airport
97,Serafin Enoss Bertaso Airport,Chapeco,Brazil,XAP,-27.134199142456,-52.656600952148,2146.0,airport
98,Brig. Lysias Augusto Rodrigues Airport,Carolina,Brazil,CLN,-7.32043981552124,-47.45869827270508,565.0,airport
99,Diomício Freitas Airport,Criciuma,Brazil,CCM,-28.7244434357,-49.4213905334,93.0,airport
100,Canoas Air Force Base,Porto Alegre,Brazil,\N,-29.945928,-51.144413,26.0,airport
101,Bartolomeu Lisandro Airport,Campos,Brazil,CAW,-21.698299408,-41.301700592,57.0,airport
102,Corumbá International Airport,Corumba,Brazil,CMG,-19.0119438171,-57.6713905334,461.0,airport
103,Afonso Pena Airport,Curitiba,Brazil,CWB,-25.5284996033,-49.1758003235,2988.0,airport
104,Caravelas Airport,Caravelas,Brazil,CRQ,-17.652299880981,-39.253101348877,36.0,airport
105,Hugo Cantergiani Regional Airport,Caxias Do Sul,Brazil,CXJ,-29.1970996857,-51.1875,2472.0,airport
106,Marechal Rondon Airport,Cuiaba,Brazil,CGB,-15.6528997421,-56.1166992188,617.0,airport
107,Cruzeiro do Sul Airport,Cruzeiro do Sul,Brazil,CZS,-7.59990978241,-72.7695007324,637.0,airport
108,Presidente Prudente Airport,President Prudente,Brazil,PPB,-22.1751003265,-51.4245986938,1477.0,airport
109,Eduardo Gomes International Airport,Manaus,Brazil,MAO,-3.038609981536865,-60.04970169067383,264.0,airport
110,Jacareacanga Airport,Jacare-acanga,Brazil,JCR,-6.233160018920898,-57.77690124511719,323.0,airport
111,São Pedro da Aldeia Airport,Sao Pedro Da Aldeia,Brazil,\N,-22.81290054321289,-42.09260177612305,61.0,airport
112,Cataratas International Airport,Foz Do Iguacu,Brazil,IGU,-25.60027885437012,-54.48500061035156,786.0,airport
113,Hercílio Luz International Airport,Florianopolis,Brazil,FLN,-27.670278549194336,-48.5525016784668,16.0,airport
114,Fernando de Noronha Airport,Fernando Do Noronha,Brazil,FEN,-3.85493,-32.423302,193.0,airport
115,Furnas Airport,Alpinopolis,Brazil,\N,-20.702800750732425,-46.33530044555664,2413.0,airport
116,Pinto Martins International Airport,Fortaleza,Brazil,FOR,-3.776279926300049,-38.53260040283203,82.0,airport
117,Rio Galeão – Tom Jobim International Airport,Rio De Janeiro,Brazil,GIG,-22.8099994659,-43.2505569458,28.0,airport
118,Guajará-Mirim Airport,Guajara-mirim,Brazil,GJM,-10.786399841308594,-65.28479766845703,478.0,airport
119,Santa Genoveva Airport,Goiania,Brazil,GYN,-16.631999969482422,-49.220699310302734,2450.0,airport
120,EMBRAER - Unidade Gavião Peixoto Airport,Macae,Brazil,\N,-21.773700714111328,-48.40510177612305,1998.0,airport
121,Guarulhos - Governador André Franco Montoro International Airport,Sao Paulo,Brazil,GRU,-23.435556411743164,-46.47305679321289,2459.0,airport
122,Guaratinguetá Airport,Guaratingueta,Brazil,GUJ,-22.79159927368164,-45.20479965209961,1761.0,airport
123,Altamira Airport,Altamira,Brazil,ATM,-3.2539100646973,-52.254001617432,369.0,airport
124,Itacoatiara Airport,Itaituba,Brazil,ITA,-3.127259969711304,-58.481201171875,142.0,airport
125,Itaituba Airport,Itaituba,Brazil,ITB,-4.2423400878906,-56.000701904297,110.0,airport
126,Bahia - Jorge Amado Airport,Ilheus,Brazil,IOS,-14.815999984741,-39.033199310303,15.0,airport
127,Usiminas Airport,Ipatinga,Brazil,IPN,-19.470699310303,-42.487598419189,784.0,airport
128,Francisco Vilela do Amaral Airport,Itumbiara,Brazil,ITR,-18.4447002411,-49.2134017944,1630.0,airport
129,Prefeito Renato Moreira Airport,Imperatriz,Brazil,IMP,-5.53129,-47.459999,432.0,airport
130,Belém/Brigadeiro Protásio de Oliveira Airport,Belem,Brazil,\N,-1.4141600132,-48.4607009888,52.0,airport
131,Francisco de Assis Airport,Juiz De Fora,Brazil,JDF,-21.79150009155273,-43.38679885864258,2989.0,airport
132,Presidente Castro Pinto International Airport,Joao Pessoa,Brazil,JPA,-7.145833015440001,-34.9486122131,217.0,airport
133,Lauro Carneiro de Loyola Airport,Joinville,Brazil,JOI,-26.22450065612793,-48.797401428222656,15.0,airport
134,Presidente João Suassuna Airport,Campina Grande,Brazil,CPV,-7.26992,-35.8964,1646.0,airport
135,Viracopos International Airport,Campinas,Brazil,VCP,-23.0074005127,-47.1344985962,2170.0,airport
136,Lages Airport,Lajes,Brazil,LAJ,-27.7821006775,-50.28150177,3065.0,airport
137,Lins Airport,Lins,Brazil,LIP,-21.663999557495,-49.730499267578,1559.0,airport
138,Governador José Richa Airport,Londrina,Brazil,LDB,-23.3335990906,-51.1301002502,1867.0,airport
139,Bom Jesus da Lapa Airport,Bom Jesus Da Lapa,Brazil,LAZ,-13.2621002197,-43.4081001282,1454.0,airport
140,Lagoa Santa Airport,Lagoa Santa,Brazil,\N,-19.66160011291504,-43.89640045166016,2795.0,airport
141,João Correa da Rocha Airport,Maraba,Brazil,MAB,-5.36858987808,-49.1380004883,357.0,airport
142,Monte Dourado Airport,Almeirim,Brazil,MEU,-0.889839,-52.6022,677.0,airport
143,Regional de Maringá - Sílvio Nane Junior Airport,Maringa,Brazil,MGF,-23.4794445038,-52.01222229,1788.0,airport
144,Mário Ribeiro Airport,Montes Claros,Brazil,MOC,-16.706899642899998,-43.818901062,2191.0,airport
145,Ponta Pelada Airport,Manaus,Brazil,PLL,-3.1460399627685547,-59.98630142211914,267.0,airport
146,Zumbi dos Palmares Airport,Maceio,Brazil,MCZ,-9.510809898376465,-35.79169845581055,387.0,airport
147,Alberto Alcolumbre Airport,Macapa,Brazil,MCP,0.0506640002131,-51.0722007751,56.0,airport
148,Dix-Sept Rosado Airport,Mocord,Brazil,MVF,-5.2019200325,-37.3642997742,76.0,airport
149,Campo de Marte Airport,Sao Paulo,Brazil,\N,-23.5090999603,-46.6377983093,2368.0,airport
150,Manicoré Airport,Manicore,Brazil,MNX,-5.8113799095154,-61.278301239014,174.0,airport
151,Ministro Victor Konder International Airport,Navegantes,Brazil,NVT,-26.879999,-48.651402,18.0,airport
152,Santo Ângelo Airport,Santo Angelo,Brazil,GEL,-28.2817,-54.169102,1056.0,airport
153,Governador Aluízio Alves International Airport,Natal,Brazil,NAT,-5.768056,-35.376111,272.0,airport
154,Oiapoque Airport,Oioiapoque,Brazil,OYK,3.85548996925354,-51.79690170288086,63.0,airport
155,Salgado Filho Airport,Porto Alegre,Brazil,POA,-29.994400024414062,-51.1713981628418,11.0,airport
156,Prefeito Doutor João Silva Filho Airport,Parnaiba,Brazil,PHB,-2.89374995232,-41.73199844359999,16.0,airport
157,Poços de Caldas - Embaixador Walther Moreira Salles Airport,Pocos De Caldas,Brazil,POO,-21.843000411987,-46.567901611328,4135.0,airport
158,Lauro Kurtz Airport,Passo Fundo,Brazil,PFB,-28.243999,-52.326599,2376.0,airport
159,João Simões Lopes Neto International Airport,Pelotas,Brazil,PET,-31.718399,-52.327702,59.0,airport
160,Senador Nilo Coelho Airport,Petrolina,Brazil,PNZ,-9.362409591674805,-40.56909942626953,1263.0,airport
161,Porto Nacional Airport,Porto Nacional,Brazil,PNB,-10.719400405883787,-48.39970016479492,870.0,airport
162,Ponta Porã Airport,Ponta Pora,Brazil,PMG,-22.54960060119629,-55.702598571777344,2156.0,airport
163,Governador Jorge Teixeira de Oliveira Airport,Porto Velho,Brazil,PVH,-8.70928955078125,-63.90230178833008,290.0,airport
164,Plácido de Castro Airport,Rio Branco,Brazil,RBR,-9.868888854980469,-67.89805603027344,633.0,airport
165,Guararapes - Gilberto Freyre International Airport,Recife,Brazil,REC,-8.126489639282227,-34.92359924316406,33.0,airport
166,Santos Dumont Airport,Rio De Janeiro,Brazil,SDU,-22.9104995728,-43.1631011963,11.0,airport
167,Leite Lopes Airport,Ribeirao Preto,Brazil,RAO,-21.136388778686523,-47.776668548583984,1806.0,airport
168,Santa Cruz Air Force Base,Rio De Janeiro,Brazil,SNZ,-22.9324,-43.719101,10.0,airport
169,Professor Urbano Ernesto Stumpf Airport,Sao Jose Dos Campos,Brazil,SJK,-23.22920036315918,-45.86149978637695,2120.0,airport
170,Marechal Cunha Machado International Airport,Sao Luis,Brazil,SLZ,-2.585360050201416,-44.23410034179688,178.0,airport
171,Congonhas Airport,Sao Paulo,Brazil,CGH,-23.626110076904297,-46.65638732910156,2631.0,airport
172,Prof. Eribelto Manoel Reino State Airport,Sao Jose Do Rio Preto,Brazil,SJP,-20.8166007996,-49.40650177,1784.0,airport
173,Base Aérea de Santos Airport,Santos,Brazil,SSZ,-23.928056716918945,-46.29972076416016,10.0,airport
174,Deputado Luiz Eduardo Magalhães International Airport,Salvador,Brazil,SSA,-12.9086112976,-38.3224983215,64.0,airport
175,Trombetas Airport,Oriximina,Brazil,TMT,-1.489599943161,-56.396800994873,287.0,airport
176,Senador Petrônio Portela Airport,Teresina,Brazil,THE,-5.0599398613,-42.8235015869,219.0,airport
177,Tefé Airport,Tefe,Brazil,TFF,-3.38294005394,-64.7240982056,188.0,airport
178,Tarauacá Airport,Tarauaca,Brazil,TRQ,-8.1552600860596,-70.783302307129,646.0,airport
179,Telêmaco Borba Airport,Telemaco Borba,Brazil,TEC,-24.317800521850582,-50.6515998840332,2610.0,airport
180,Tiriós Airport,Obidos Tirios,Brazil,\N,2.22347,-55.946098,1127.0,airport
181,Tabatinga Airport,Tabatinga,Brazil,TBT,-4.2556700706482,-69.93579864502,279.0,airport
182,Tucuruí Airport,Tucurui,Brazil,TUR,-3.7860100269318,-49.72029876709,830.0,airport
183,São Gabriel da Cachoeira Airport,Sao Gabriel,Brazil,SJL,-0.14835,-66.9855,251.0,airport
184,Paulo Afonso Airport,Paulo Alfonso,Brazil,PAV,-9.4008798599243,-38.250598907471,883.0,airport
185,Rubem Berta Airport,Uruguaiana,Brazil,URG,-29.7821998596,-57.0382003784,256.0,airport
186,Ten. Cel. Aviador César Bombonato Airport,Uberlandia,Brazil,UDI,-18.883612,-48.225277,3094.0,airport
187,Mário de Almeida Franco Airport,Uberaba,Brazil,UBA,-19.764722824097,-47.966110229492,2655.0,airport
188,Major Brigadeiro Trompowsky Airport,Varginha,Brazil,VAG,-21.5900993347,-45.4733009338,3025.0,airport
189,Brigadeiro Camarão Airport,Vilhena,Brazil,BVH,-12.694399833679,-60.098300933838,2018.0,airport
190,Eurico de Aguiar Salles Airport,Vitoria,Brazil,VIX,-20.258057,-40.286388,11.0,airport
191,Iauaretê Airport,Iauarete,Brazil,\N,0.6075000166893,-69.18579864502,345.0,airport
192,Campo Fontenelle Airport,Piracununga,Brazil,QPS,-21.984600067138672,-47.33480072021485,1968.0,airport
193,Chacalluta Airport,Arica,Chile,ARI,-18.348499,-70.338699,167.0,airport
194,Balmaceda Airport,Balmaceda,Chile,BBA,-45.91609954833984,-71.68949890136719,1722.0,airport
195,El Bosque Airport,Santiago,Chile,\N,-33.561798095703125,-70.68840026855469,1844.0,airport
196,Chile Chico Airport,Chile Chico,Chile,CCH,-46.58330154418945,-71.6874008178711,1070.0,airport
197,El Loa Airport,Calama,Chile,CJC,-22.498199462890625,-68.90360260009766,7543.0,airport
198,Gral. Bernardo O´Higgins Airport,Chillan,Chile,YAI,-36.58250045776367,-72.03140258789062,495.0,airport
199,Pdte. Carlos Ibañez del Campo Airport,Punta Arenas,Chile,PUQ,-53.002602,-70.854599,139.0,airport
200,Teniente Vidal Airport,Coyhaique,Chile,GXQ,-45.594200134277344,-72.1061019897461,1020.0,airport
201,Diego Aracena Airport,Iquique,Chile,IQQ,-20.535200119018555,-70.1812973022461,155.0,airport
202,Comodoro Arturo Merino Benítez International Airport,Santiago,Chile,SCL,-33.393001556396484,-70.78579711914062,1555.0,airport
203,Andrés Sabella Gálvez International Airport,Antofagasta,Chile,ANF,-23.444501,-70.445099,455.0,airport
204,Capitan Fuentes Martinez Airport Airport,Porvenir,Chile,WPR,-53.253700256347656,-70.31919860839844,104.0,airport
205,Futaleufú Airport,Futaleufu,Chile,FFU,-43.18920135498047,-71.8510971069336,1148.0,airport
206,María Dolores Airport,Los Angeles,Chile,LSQ,-37.40169906616211,-72.42539978027344,374.0,airport
207,Guardiamarina Zañartu Airport,Puerto Williams,Chile,WPU,-54.93109893798828,-67.62629699707031,88.0,airport
208,Carriel Sur Airport,Concepcion,Chile,CCP,-36.772701,-73.063103,26.0,airport
209,Mataveri Airport,Easter Island,Chile,IPC,-27.1648006439,-109.42199707,227.0,airport
210,Cañal Bajo Carlos - Hott Siebert Airport,Osorno,Chile,ZOS,-40.61119842529297,-73.06099700927734,187.0,airport
211,Vallenar Airport,Vallenar,Chile,VLR,-28.596399307250977,-70.75599670410156,1725.0,airport
212,De La Independencia Airport,Rancagua,Chile,QRC,-34.17369842529297,-70.77570343017578,1446.0,airport
213,La Florida Airport,La Serena,Chile,LSC,-29.916201,-71.199501,481.0,airport
214,Eulogio Sánchez Airport,Santiago,Chile,\N,-33.456298828125,-70.54669952392578,2129.0,airport
215,Maquehue Airport,Temuco,Chile,PZS,-38.766799926758,-72.637100219727,304.0,airport
216,El Tepual Airport,Puerto Montt,Chile,PMC,-41.43889999389648,-73.09400177001953,294.0,airport
217,Chaitén Airport,Chaiten,Chile,WCH,-42.93280029296875,-72.6990966796875,13.0,airport
218,Pichoy Airport,Valdivia,Chile,ZAL,-39.6500015259,-73.0860977173,59.0,airport
219,Chachoán Airport,Ambato,Ecuador,ATF,-1.2120699882507324,-78.57460021972656,8502.0,airport
220,Hacienda Clementina Airport,Clementia,Ecuador,\N,-1.7062699794769287,-79.37889862060547,328.0,airport
221,Francisco De Orellana Airport,Coca,Ecuador,OCC,-0.4628860056400299,-76.98680114746094,834.0,airport
222,Mariscal Lamar Airport,Cuenca,Ecuador,CUE,-2.88947,-78.984398,8306.0,airport
223,Seymour Airport,Galapagos,Ecuador,GPS,-0.4537580013275146,-90.26589965820312,207.0,airport
224,José Joaquín de Olmedo International Airport,Guayaquil,Ecuador,GYE,-2.15741991997,-79.88359832760001,19.0,airport
225,Gualaquiza Airport,Gualaquiza,Ecuador,\N,-3.4232099056243896,-78.56700134277344,2640.0,airport
226,Atahualpa Airport,Ibarra,Ecuador,\N,0.3384189903736114,-78.13639831542969,7304.0,airport
227,Km 192 Airport,Km-192,Ecuador,\N,0.1842029988765716,-79.39199829101562,1247.0,airport
228,Hacienda La Julia Airport,La Julia,Ecuador,\N,-1.7043800354003906,-79.55229949951172,50.0,airport
229,Cotopaxi International Airport,Latacunga,Ecuador,LTX,-0.906833,-78.615799,9205.0,airport
230,Jose Maria Velasco Ibarra Airport,Macara,Ecuador,MRR,-4.37823009491,-79.94100189210002,1508.0,airport
231,Coronel E Carvajal Airport,Macas,Ecuador,XMS,-2.299170017242432,-78.12079620361328,3452.0,airport
232,General Manuel Serrano Airport,Machala,Ecuador,MCH,-3.2689,-79.961601,11.0,airport
233,El Carmen Airport,Montalvo,Ecuador,\N,-2.067009925842285,-76.97570037841797,960.0,airport
234,Eloy Alfaro International Airport,Manta,Ecuador,MEC,-0.9460780024528505,-80.67880249023438,48.0,airport
235,Maragrosa Airport,Maragrosa,Ecuador,\N,-2.851099967956543,-79.80359649658203,18.0,airport
236,Amable Calle Gutierrez Airport,Pasaje,Ecuador,\N,-3.3196699619293213,-79.76920318603516,22.0,airport
237,Reales Tamarindos Airport,Portoviejo,Ecuador,PVO,-1.0416500568389893,-80.47219848632812,130.0,airport
238,Quevedo Airport,Quevedo,Ecuador,\N,-0.989400029182434,-79.46510314941406,350.0,airport
239,Mariscal Sucre International Airport,Quito,Ecuador,UIO,-0.129166666667,-78.3575,7841.0,airport
240,Chimborazo Airport,Riobamba,Ecuador,\N,-1.6534299850463867,-78.65609741210938,9151.0,airport
241,Santa Rosa International Airport,Santa Rosa,Ecuador,ETR,-3.441986,-79.996957,20.0,airport
242,General Ulpiano Paez Airport,Salinas,Ecuador,SNC,-2.20499,-80.988899,18.0,airport
243,Santo Domingo de Los Colorados Airport,Santo Domingo,Ecuador,\N,-0.2482219934463501,-79.21440124511719,1714.0,airport
244,Taura Airport,Taura,Ecuador,\N,-2.261039972305298,-79.6801986694336,56.0,airport
245,Mayor Galo Torres Airport,Tena,Ecuador,\N,-0.9867669939994812,-77.81950378417969,1708.0,airport
246,Tarapoa Airport,Tarapoa,Ecuador,TPC,-0.1229560002684593,-76.33779907226562,814.0,airport
247,Teniente Coronel Luis a Mantilla Airport,Tulcan,Ecuador,TUA,0.8095059990882874,-77.70809936523438,9649.0,airport
248,Silvio Pettirossi International Airport,Asuncion,Paraguay,ASU,-25.239999771118164,-57.52000045776367,292.0,airport
249,Juan De Ayolas Airport,Ayolas,Paraguay,AYO,-27.370554,-56.854064,223.0,airport
250,Teniente Col Carmelo Peralta Airport,Conception,Paraguay,CIO,-23.442363,-57.427253,253.0,airport
251,Itaipú Airport,Itaipu,Paraguay,\N,-25.407519,-54.619377,762.0,airport
252,Dr. Luis Maria Argaña International Airport,Mariscal Estigarribia,Paraguay,ESG,-22.049999237060547,-60.619998931884766,553.0,airport
253,Carlos Miguel Gimenez Airport,Pilar,Paraguay,PIL,-26.881224,-58.318026,249.0,airport
254,El Eden Airport,Armenia,Colombia,AXM,4.45278,-75.7664,3990.0,airport
255,Tres De Mayo Airport,Puerto Asis,Colombia,PUU,0.505228,-76.5008,815.0,airport
256,Las Flores Airport,El Banco,Colombia,ELB,9.04554,-73.9749,111.0,airport
257,Palonegro Airport,Bucaramanga,Colombia,BGA,7.1265,-73.1848,3897.0,airport
258,El Dorado International Airport,Bogota,Colombia,BOG,4.70159,-74.1469,8361.0,airport
259,Ernesto Cortissoz International Airport,Barranquilla,Colombia,BAQ,10.8896,-74.7808,98.0,airport
260,José Celestino Mutis Airport,Bahia Solano,Colombia,BSC,6.20292,-77.3947,80.0,airport
261,Gerardo Tobar López Airport,Buenaventura,Colombia,BUN,3.81963,-76.9898,48.0,airport
262,Camilo Daza International Airport,Cucuta,Colombia,CUC,7.92757,-72.5115,1096.0,airport
263,Rafael Nuñez International Airport,Cartagena,Colombia,CTG,10.4424,-75.513,4.0,airport
264,Alfonso Bonilla Aragon International Airport,Cali,Colombia,CLO,3.54322,-76.3816,3162.0,airport
265,La Florida Airport,Tumaco,Colombia,TCO,1.81442,-78.7492,8.0,airport
266,Las Brujas Airport,Corozal,Colombia,CZU,9.33274,-75.2856,528.0,airport
267,Yariguíes Airport,Barrancabermeja,Colombia,EJA,7.02433,-73.8068,412.0,airport
268,Gustavo Artunduaga Paredes Airport,Florencia,Colombia,FLA,1.58919,-75.5644,803.0,airport
269,Santiago Vila Airport,Girardot,Colombia,GIR,4.27624,-74.7967,900.0,airport
270,Juan Casiano Airport,Guapi,Colombia,GPI,2.57013,-77.8986,164.0,airport
271,Guaymaral Airport,Guaymaral,Colombia,\N,4.81233,-74.0649,8390.0,airport
272,Perales Airport,Ibague,Colombia,IBE,4.42161,-75.1333,2999.0,airport
273,San Luis Airport,Ipiales,Colombia,IPI,0.861925,-77.6718,9765.0,airport
274,Antonio Roldan Betancourt Airport,Carepa,Colombia,APO,7.81196,-76.7164,46.0,airport
275,Jorge Isaac Airport,La Mina,Colombia,MCJ,11.2325,-72.4901,281.0,airport
276,Alfredo Vásquez Cobo International Airport,Leticia,Colombia,LET,-4.19355,-69.9432,277.0,airport
277,Enrique Olaya Herrera Airport,Medellin,Colombia,EOH,6.220549,-75.590582,4949.0,airport
278,Baracoa Airport,Magangue,Colombia,MGN,9.28474,-74.8461,178.0,airport
279,Los Garzones Airport,Monteria,Colombia,MTR,8.82374,-75.8258,36.0,airport
280,Fabio Alberto Leon Bentley Airport,Mitu,Colombia,MVP,1.25366,-70.2339,680.0,airport
281,La Nubia Airport,Manizales,Colombia,MZL,5.0296,-75.4647,6871.0,airport
282,Benito Salas Airport,Neiva,Colombia,NVA,2.95015,-75.294,1464.0,airport
283,Aguas Claras Airport,Ocana,Colombia,OCV,8.31506,-73.3583,3850.0,airport
284,Otu Airport,Otu,Colombia,OTU,7.01037,-74.7155,2060.0,airport
285,Puerto Bolívar Airport,Puerto Bolivar,Colombia,\N,12.2215,-71.9848,90.0,airport
286,German Olano Airport,Puerto Carreno,Colombia,PCR,6.18472,-67.4932,177.0,airport
287,Matecaña International Airport,Pereira,Colombia,PEI,4.81267,-75.7395,4416.0,airport
288,Pitalito Airport,Pitalito,Colombia,PTX,1.85777,-76.0857,4212.0,airport
289,Guillermo León Valencia Airport,Popayan,Colombia,PPN,2.4544,-76.6093,5687.0,airport
290,Antonio Narino Airport,Pasto,Colombia,PSO,1.39625,-77.2915,5951.0,airport
291,El Embrujo Airport,Providencia,Colombia,PVA,13.3569,-81.3583,10.0,airport
292,Mariquita Airport,Mariquita,Colombia,MQU,5.21256,-74.8836,1531.0,airport
293,Jose Maria Córdova International Airport,Rio Negro,Colombia,MDE,6.16454,-75.4231,6955.0,airport
294,Almirante Padilla Airport,Rio Hacha,Colombia,RCH,11.5262,-72.926,43.0,airport
295,Jorge E. Gonzalez Torres Airport,San Jose Del Guaviare,Colombia,SJE,2.57969,-72.6394,605.0,airport
296,Simón Bolívar International Airport,Santa Marta,Colombia,SMR,11.1196,-74.2306,22.0,airport
297,Gustavo Rojas Pinilla International Airport,San Andres Island,Colombia,ADZ,12.5836,-81.7112,19.0,airport
298,Eduardo Falla Solano Airport,San Vincente De Caguan,Colombia,SVI,2.15217,-74.7663,920.0,airport
299,Gustavo Vargas Airport,Tame,Colombia,TME,6.45108,-71.7603,1050.0,airport
300,Santiago Perez Airport,Arauca,Colombia,AUC,7.06888,-70.7369,420.0,airport
301,El Caraño Airport,Quibdo,Colombia,UIB,5.69076,-76.6412,204.0,airport
302,Heriberto Gíl Martínez Airport,Tulua,Colombia,ULQ,4.08836,-76.2351,3132.0,airport
303,Alfonso López Pumarejo Airport,Valledupar,Colombia,VUP,10.435,-73.2495,483.0,airport
304,Vanguardia Airport,Villavicencio,Colombia,VVC,4.16787,-73.6138,1394.0,airport
305,Bermejo Airport,Bermejo,Bolivia,BJO,-22.7733001709,-64.31289672850001,1249.0,airport
306,Jorge Wilsterman International Airport,Cochabamba,Bolivia,CBB,-17.421100616455078,-66.1771011352539,8360.0,airport
307,Chimore Airport,Chapacura,Bolivia,CCA,-16.976834,-65.145568,875.0,airport
308,Capitán Aníbal Arab Airport,Cobija,Bolivia,CIJ,-11.040399551400002,-68.7829971313,889.0,airport
309,El Alto International Airport,La Paz,Bolivia,LPB,-16.5132999420166,-68.19229888916016,13355.0,airport
310,Juan Mendoza Airport,Oruro,Bolivia,ORU,-17.962600708,-67.0762023926,12152.0,airport
311,Capitan Nicolas Rojas Airport,Potosi,Bolivia,POI,-19.5431003571,-65.72370147710001,12913.0,airport
312,Capitán Av. Salvador Ogaya G. airport,Puerto Suarez,Bolivia,PSZ,-18.975301,-57.820599,440.0,airport
313,Santa Ana Del Yacuma Airport,Santa Ana,Bolivia,SBL,-13.7622003555,-65.4352035522,472.0,airport
314,Juana Azurduy De Padilla Airport,Sucre,Bolivia,SRE,-19.007099151611328,-65.2886962890625,9540.0,airport
315,Capitan Oriel Lea Plaza Airport,Tarija,Bolivia,TJA,-21.5557003021,-64.7013015747,6079.0,airport
316,Teniente Av. Jorge Henrich Arauz Airport,Trinidad,Bolivia,TDD,-14.8186998367,-64.9179992676,509.0,airport
317,Teniente Coronel Rafael Pabón Airport,Villa Montes,Bolivia,VLM,-21.2551994324,-63.4056015015,1305.0,airport
318,Viru Viru International Airport,Santa Cruz,Bolivia,VVI,-17.6448,-63.135399,1224.0,airport
319,Yacuiba Airport,Yacuiba,Bolivia,BYC,-21.960899353027344,-63.65169906616211,2112.0,airport
320,Johan Adolf Pengel International Airport,Zandery,Suriname,PBM,5.4528298378,-55.1878013611,59.0,airport
321,Cayenne-Rochambeau Airport,Cayenne,French Guiana,CAY,4.819809913639999,-52.3604011536,26.0,airport
322,Saint-Georges-de-l'Oyapock Airport,St.-georges Oyapock,French Guiana,OYP,3.89759993553,-51.8041000366,46.0,airport
323,Huancabamba Airport,Huancabamba,Peru,\N,-5.256770133972168,-79.44290161132812,6312.0,airport
324,Alferez FAP Alfredo Vladimir Sara Bauer Airport,Andoas,Peru,AOP,-2.79612994194,-76.46659851070001,728.0,airport
325,Teniente General Gerardo Pérez Pinedo Airport,Atalaya,Peru,\N,-10.7291002274,-73.7665023804,751.0,airport
326,Iberia Airport,Iberia,Peru,IBP,-11.41160011291504,-69.48870086669922,750.0,airport
327,Cap FAP David Abenzur Rengifo International Airport,Pucallpa,Peru,PCL,-8.37794017791748,-74.57430267333984,513.0,airport
328,Teniente FAP Jaime A De Montreuil Morales Airport,Chimbote,Peru,CHM,-9.149609565734863,-78.5238037109375,69.0,airport
329,Puerto Esperanza Airport,Puerto Esperanza,Peru,\N,-9.7681303024292,-70.70649719238281,725.0,airport
330,Cesar Torke Podesta Airport,Moquegua,Peru,\N,-17.179000854492188,-70.93080139160156,4480.0,airport
331,Capitan FAP Jose A Quinones Gonzales International Airport,Chiclayo,Peru,CIX,-6.787479877471924,-79.8281021118164,97.0,airport
332,Coronel FAP Alfredo Mendivil Duarte Airport,Ayacucho,Peru,AYP,-13.154800415039062,-74.20439910888672,8917.0,airport
333,Andahuaylas Airport,Andahuaylas,Peru,ANS,-13.70639991760254,-73.35040283203125,11300.0,airport
334,Comandante FAP German Arias Graziani Airport,Anta,Peru,ATA,-9.347439765930176,-77.59839630126953,9097.0,airport
335,Jorge Chávez International Airport,Lima,Peru,LIM,-12.0219,-77.114305,113.0,airport
336,Juanjui Airport,Juanjui,Peru,JJI,-7.169099807739258,-76.72859954833984,1148.0,airport
337,Francisco Carle Airport,Jauja,Peru,JAU,-11.7831001282,-75.47339630130001,11034.0,airport
338,Inca Manco Capac International Airport,Juliaca,Peru,JUL,-15.467100143432615,-70.158203125,12552.0,airport
339,Ilo Airport,Ilo,Peru,ILQ,-17.69499969482422,-71.34400177001953,72.0,airport
340,Las Palmas Air Base,Las Palmas,Peru,\N,-12.16069984436,-76.998901367188,250.0,airport
341,Capitan FAP Pedro Canga Rodriguez Airport,Tumbes,Peru,TBP,-3.55253005027771,-80.38140106201172,115.0,airport
342,Moises Benzaquen Rengifo Airport,Yurimaguas,Peru,YMS,-5.893770217895508,-76.11820220947266,587.0,airport
343,Collique Airport,Collique,Peru,\N,-11.92870044708252,-77.06109619140625,410.0,airport
344,Chachapoyas Airport,Chachapoyas,Peru,CHH,-6.201809883117676,-77.8561019897461,8333.0,airport
345,Coronel FAP Francisco Secada Vignetta International Airport,Iquitos,Peru,IQT,-3.7847399711608887,-73.30879974365234,306.0,airport
346,Rodríguez Ballón International Airport,Arequipa,Peru,AQP,-16.3411006927,-71.5830993652,8405.0,airport
347,Capitán FAP Leonardo Alvariño Herr Airport,San Ramon,Peru,\N,-11.128600120544434,-75.35050201416016,2600.0,airport
348,Capitan FAP Carlos Martinez De Pinillos International Airport,Trujillo,Peru,TRU,-8.08141040802002,-79.10880279541016,106.0,airport
349,Capitán FAP Renán Elías Olivera International Airport,Pisco,Peru,PIO,-13.74489974975586,-76.22029876708984,39.0,airport
350,Cadete FAP Guillermo Del Castillo Paredes Airport,Tarapoto,Peru,TPP,-6.508739948272705,-76.37319946289062,869.0,airport
351,Coronel FAP Carlos Ciriani Santa Rosa International Airport,Tacna,Peru,TCQ,-18.0533008575,-70.2758026123,1538.0,airport
352,Padre Aldamiz International Airport,Puerto Maldonado,Peru,PEM,-12.6135997772,-69.2285995483,659.0,airport
353,Capitán FAP Guillermo Concha Iberico International Airport,Piura,Peru,PIU,-5.20574998856,-80.61640167239999,120.0,airport
354,Capitan Montes Airport,Talara,Peru,TYL,-4.5766401290894,-81.254096984863,282.0,airport
355,Alejandro Velasco Astete International Airport,Cuzco,Peru,CUZ,-13.535699844400002,-71.9387969971,10860.0,airport
356,Angel S Adami Airport,Montevideo,Uruguay,\N,-34.7892,-56.264702,174.0,airport
357,Santa Bernardina International Airport,Durazno,Uruguay,DZO,-33.3588981628418,-56.49919891357422,305.0,airport
358,Carrasco International /General C L Berisso Airport,Montevideo,Uruguay,MVD,-34.838402,-56.0308,105.0,airport
359,Nueva Hesperides International Airport,Salto,Uruguay,STY,-31.438499450683597,-57.98529815673828,187.0,airport
360,Oswaldo Guevara Mujica Airport,Acarigua,Venezuela,AGV,9.553375244140623,-69.23786926269531,640.0,airport
361,Anaco Airport,Anaco,Venezuela,AAO,9.430225372314451,-64.4707260131836,721.0,airport
362,San Fernando de Atabapo Airport,San Fernando Deatabapo,Venezuela,\N,4.05104017258,-67.6996994019,301.0,airport
363,General José Antonio Anzoategui International Airport,Barcelona,Venezuela,BLA,10.111111,-64.692222,30.0,airport
364,Barinas Airport,Barinas,Venezuela,BNS,8.615,-70.21416667,615.0,airport
365,El Libertador Airbase,Maracaibo,Venezuela,\N,10.1833753586,-67.55731964110001,1450.0,airport
366,Barquisimeto International Airport,Barquisimeto,Venezuela,BRM,10.042746543884276,-69.3586196899414,2042.0,airport
367,"Aeropuerto ""General Tomas de Heres"". Ciudad Bolivar",Ciudad Bolivar,Venezuela,CBL,8.12216091156,-63.5369567871,197.0,airport
368,Caicara del Orinoco Airport,Caicara De Orinoco,Venezuela,CXA,7.625510215759277,-66.16280364990234,141.0,airport
369,San Carlos Airport,San Carlos,Venezuela,\N,9.647720336914062,-68.57469940185547,512.0,airport
370,Calabozo Airport,Calabozo,Venezuela,CLZ,8.92465591430664,-67.4170913696289,328.0,airport
371,Canaima Airport,Canaima,Venezuela,CAJ,6.231988906860352,-62.85443115234375,1450.0,airport
372,Carora Airport,Carora,Venezuela,VCR,10.175602912902832,-70.06521606445312,1437.0,airport
373,General Francisco Bermúdez Airport,Carupano,Venezuela,CUP,10.660014152526855,-63.261680603027344,33.0,airport
374,José Leonardo Chirinos Airport,Coro,Venezuela,CZE,11.41494369506836,-69.68090057373047,52.0,airport
375,Oscar Machado Zuluaga Airport,Caracas,Venezuela,\N,10.286110877990724,-66.81610870361328,2145.0,airport
376,Cumaná (Antonio José de Sucre) Airport,Cumana,Venezuela,CUM,10.450332641601562,-64.1304702758789,14.0,airport
377,Capitán Manuel Ríos Airbase,Carrizal,Venezuela,\N,9.372650146484377,-66.92279815673828,595.0,airport
378,El Dorado Airport,El Dorado,Venezuela,EOR,6.733333110809326,-61.58333206176758,318.0,airport
379,Elorza Airport,Elorza,Venezuela,EOZ,7.083333015441895,-69.53333282470703,295.0,airport
380,Guasdalito Airport,Guasdualito,Venezuela,GDO,7.233333110809326,-70.80000305175781,426.0,airport
381,Guiria Airport,Guiria,Venezuela,GUI,10.5740776062,-62.3126678467,42.0,airport
382,Guanare Airport,Guanare,Venezuela,GUQ,9.026944160461426,-69.7551498413086,606.0,airport
383,Higuerote Airport,Higuerote,Venezuela,HGE,10.462474,-66.092779,12.0,airport
384,Andrés Miguel Salazar Marcano Airport,Isla De Coche,Venezuela,ICC,10.794432,-63.98159,10.0,airport
385,Josefa Camejo International Airport,Paraguana,Venezuela,LSP,11.78077507019043,-70.15149688720703,75.0,airport
386,San Juan de Los Morros Airport,San Juan De Los Morros,Venezuela,\N,9.906952857971191,-67.379638671875,1404.0,airport
387,La Fria Airport,La Fria,Venezuela,LFR,8.239167213439941,-72.27102661132812,305.0,airport
388,La Orchila Airport,La Orchila,Venezuela,\N,11.80720043182373,-66.17960357666016,5.0,airport
389,La Chinita International Airport,Maracaibo,Venezuela,MAR,10.5582084656,-71.7278594971,239.0,airport
390,Alberto Carnevalli Airport,Merida,Venezuela,MRD,8.582078,-71.161041,5007.0,airport
391,Del Caribe Santiago Mariño International Airport,Porlamar,Venezuela,PMV,10.912603378295898,-63.96659851074219,74.0,airport
392,Simón Bolívar International Airport,Caracas,Venezuela,CCS,10.601194,-66.991222,234.0,airport
393,Maturín Airport,Maturin,Venezuela,MUN,9.75452995300293,-63.14739990234375,224.0,airport
394,Cacique Aramare Airport,Puerto Ayacucho,Venezuela,PYH,5.6199898719788,-67.606101989746,245.0,airport
395,General Bartolome Salom International Airport,Puerto Cabello,Venezuela,PBL,10.48050022125244,-68.072998046875,32.0,airport
396,Paramillo Airport,San Cristobal,Venezuela,SCI,7.8013200759887695,-72.2029037475586,3314.0,airport
397,General Manuel Carlos Piar International Airport,Guayana,Venezuela,PZO,8.288530349731445,-62.760398864746094,472.0,airport
398,Palmarito Airport,Palmarito,Venezuela,PTM,7.566669940948486,-70.18329620361328,347.0,airport
399,San Antonio Del Tachira Airport,San Antonio,Venezuela,SVZ,7.840829849243164,-72.439697265625,1312.0,airport
400,Santa Bárbara de Barinas Airport,Santa Barbara,Venezuela,SBB,7.803514003753662,-71.16571807861328,590.0,airport
401,Santa Elena de Uairen Airport,Santa Ana De Uairen,Venezuela,SNV,4.554999828338623,-61.150001525878906,2938.0,airport
402,Mayor Buenaventura Vivas International Airport,Santo Domingo,Venezuela,STD,7.56538,-72.035103,1083.0,airport
403,Sub Teniente Nestor Arias Airport,San Felipe,Venezuela,SNF,10.2787,-68.755203,761.0,airport
404,San Fernando De Apure Airport,San Fernando De Apure,Venezuela,SFD,7.883319854736328,-67.44400024414062,154.0,airport
405,San Tomé Airport,San Tome,Venezuela,SOM,8.9451465606689,-64.151084899902,861.0,airport
406,Santa Bárbara del Zulia Airport,Santa Barbara,Venezuela,STB,8.974550247192383,-71.94325256347656,32.0,airport
407,Tucupita Airport,Tucupita,Venezuela,TUV,9.088994026184082,-62.09417343139648,16.0,airport
408,Tumeremo Airport,Tumeremo,Venezuela,TMO,7.24938,-61.52893,345.0,airport
409,Arturo Michelena International Airport,Valencia,Venezuela,VLN,10.14973258972168,-67.92839813232422,1411.0,airport
410,Dr. Antonio Nicolás Briceño Airport,Valera,Venezuela,VLV,9.34047794342041,-70.58406066894531,2060.0,airport
411,Valle de La Pascua Airport,Valle De La Pascua,Venezuela,VDP,9.22202777863,-65.9935836792,410.0,airport
412,Linden Airport,Linden,Guyana,\N,5.96592,-58.270302,180.0,airport
413,Lethem Airport,Lethem,Guyana,LTM,3.37276,-59.789398,351.0,airport
414,Ministro Pistarini International Airport,Buenos Aires,Argentina,EZE,-34.8222,-58.5358,67.0,airport
415,El Calafate Airport,El Calafate,Argentina,FTE,-50.2803,-72.053101,669.0,airport
416,Maestro Wilson Fonseca Airport,Santarem,Brazil,STM,-2.424721956253052,-54.785831451416016,198.0,airport
417,Santa Elena Airport,Santa Elena de Uairen,Venezuela,\N,4.554722,-61.144922,3585.0,airport
418,Porto Seguro Airport,Porto Seguro,Brazil,BPS,-16.438601,-39.080898,168.0,airport
419,Heliport Hotel das Cataratas,Cataratas National Park,Brazil,\N,-25.684,-54.44024,1000.0,airport
420,Iguatu Airport,Iguatu,Brazil,QIG,-6.346640110015869,-39.29380035400391,699.0,airport
421,Brigadeiro Lysias Rodrigues Airport,Palmas,Brazil,PMW,-10.2915000916,-48.35699844359999,774.0,airport
422,Nelson Ribeiro Guimarães Airport,Caldas Novas,Brazil,CLV,-17.725299835205,-48.607498168945,2247.0,airport
423,El Trompillo Airport,Santa Cruz,Bolivia,SRZ,-17.8115997314,-63.1715011597,1371.0,airport
424,Cheddi Jagan International Airport,Georgetown,Guyana,GEO,6.498549938201904,-58.25410079956055,95.0,airport
425,Guarani International Airport,Ciudad del Este,Paraguay,AGT,-25.454516,-54.842682,846.0,airport
426,Eugene F. Correira International Airport,Georgetown,Guyana,OGL,6.80628,-58.1059,10.0,airport
427,Kaieteur International Airport,Kaieteur,Guyana,KAI,5.17275476456,-59.491481781,1520.0,airport
428,Chamonate Airport,Copiapo,Chile,\N,-27.2968997955,-70.4131011963,984.0,airport
429,Apartadó Airport,Apartadó,Colombia,\N,7.033,-77.2,0.0,airport
430,Tarapacá Airport,Tarapacá,Colombia,TCD,-2.867,-69.733,0.0,airport
431,General Enrique Mosconi Airport,Tartagal,Argentina,TTG,-22.619600296,-63.7937011719,1472.0,airport
432,Las Heras Airport,Las Heras,Argentina,LHS,-46.53829956049999,-68.9653015137,1082.0,airport
433,Antoine de Saint Exupéry Airport,San Antonio Oeste,Argentina,OES,-40.7512,-65.0343,85.0,airport
434,Lago Argentino Airport,El Calafate,Argentina,ING,-50.336102,-72.248596,732.0,airport
435,Gobernador Gregores Airport,Gobernador Gregores,Argentina,GGS,-48.7831,-70.150002,356.0,airport
436,Santa Teresita Airport,Santa Teresita,Argentina,SST,-36.5423,-56.7218,9.0,airport
437,Necochea Airport,Necochea,Argentina,NEC,-38.4831,-58.8172,72.0,airport
438,Orlando Bezerra de Menezes Airport,Juazeiro Do Norte,Brazil,JDO,-7.21895980835,-39.2700996399,1392.0,airport
439,Coronel Horácio de Mattos Airport,Lençóis,Brazil,LEC,-12.4822998047,-41.2770004272,1676.0,airport
440,Macaé Airport,Macaé,Brazil,MEA,-22.343000412,-41.7659988403,8.0,airport
441,Frank Miloye Milenkowichi–Marília State Airport,Marília,Brazil,MII,-22.1968994141,-49.926399231,2122.0,airport
442,Vitória da Conquista Airport,Vitória Da Conquista,Brazil,VDC,-14.8627996445,-40.8630981445,3002.0,airport
443,Santa Maria Airport,Santa Maria,Brazil,RIA,-29.711399,-53.688202,287.0,airport
444,Toledo Airport,Toledo,Brazil,TOW,-24.6863,-53.697498,1843.0,airport
445,Ricardo García Posada Airport,El Salvador,Chile,ESR,-26.31110000610352,-69.76519775390625,5240.0,airport
446,Pucón Airport,Pucon,Chile,ZPC,-39.29280090332031,-71.91590118408203,853.0,airport
447,Sorocaba Airport,Sorocaba,Brazil,SOD,-23.478001,-47.490002,2077.0,airport
448,San Cristóbal Airport,San Cristóbal,Ecuador,SCY,-0.910206,-89.617401,62.0,airport
449,Camilo Ponce Enriquez Airport,La Toma (Catamayo),Ecuador,LOH,-3.99589,-79.371902,4056.0,airport
450,General Rivadeneira Airport,Esmeraldas,Ecuador,ESM,0.9785190224647522,-79.62660217285156,32.0,airport
451,Santa Ana Airport,Cartago,Colombia,CRC,4.75818,-75.9557,2979.0,airport
452,La Jagua Airport,Garzón,Colombia,\N,2.1464,-75.6944,2620.0,airport
453,Caucaya Airport,Puerto Leguízamo,Colombia,LQM,-0.182278,-74.7708,573.0,airport
454,La Pedrera Airport,La Pedrera,Colombia,LPD,-1.32861,-69.5797,590.0,airport
455,Reyes Murillo Airport,Nuquí,Colombia,NQU,5.6964,-77.2806,12.0,airport
456,Obando Airport,Puerto Inírida,Colombia,PDA,3.85353,-67.9062,460.0,airport
457,El Yopal Airport,Yopal,Colombia,EYP,5.31911,-72.384,1028.0,airport
458,Capitán de Av. Emilio Beltrán Airport,Guayaramerín,Bolivia,GYA,-10.820599556,-65.3455963135,557.0,airport
459,Puerto Rico Airport,Puerto Rico/Manuripi,Bolivia,PUR,-11.107663,-67.551155,597.0,airport
460,Capitán Av. Selin Zeitun Lopez Airport,Riberalta,Bolivia,RIB,-11.0,-66.0,462.0,airport
461,Reyes Airport,Reyes,Bolivia,REY,-14.3044,-67.353401,935.0,airport
462,Capitán Av. German Quiroga G. Airport,San Borja,Bolivia,SRJ,-14.85919952392578,-66.73750305175781,633.0,airport
463,Zorg en Hoop Airport,Paramaribo,Suriname,ORG,5.81108,-55.190701,10.0,airport
464,Mucuri Airport,Mucuri,Brazil,MVS,-18.048900604248047,-39.864200592041016,276.0,airport
465,Caballococha Airport,Caballococha,Peru,\N,-3.91686010361,-70.5082015991,328.0,airport
466,Mayor General FAP Armando Revoredo Iglesias Airport,Cajamarca,Peru,CJA,-7.1391801834106445,-78.4894027709961,8781.0,airport
467,Alferez Fap David Figueroa Fernandini Airport,Huánuco,Peru,HUU,-9.878809928894045,-76.20480346679688,6070.0,airport
468,Maria Reiche Neuman Airport,Nazca,Peru,NZC,-14.8540000916,-74.9615020752,1860.0,airport
469,Santa Rosa Airport,Santa Rosa,Brazil,SRA,-27.9067,-54.520401,984.0,airport
470,El Jagüel / Punta del Este Airport,Maldonado,Uruguay,\N,-34.9169998169,-54.9169998169,66.0,airport
471,Escuela Mariscal Sucre Airport,Maracay,Venezuela,MYC,10.249978065490724,-67.64942169189453,1338.0,airport
472,Juan Pablo Pérez Alfonso Airport,El Vigía,Venezuela,VIG,8.624139,-71.672668,250.0,airport
473,Ji-Paraná Airport,Ji-Paraná,Brazil,JPR,-10.8708000183,-61.8465003967,598.0,airport
474,Los Roques Airport,Los Roques,Venezuela,LRV,11.9499998093,-66.66999816890001,17.0,airport
475,Erechim Airport,Erechim,Brazil,ERM,-27.66189956665039,-52.2682991027832,2498.0,airport
476,Saúl Airport,Saul,French Guiana,XAU,3.61361,-53.204201,656.0,airport
477,Coronel Altino Machado de Oliveira Airport,Governador Valadares,Brazil,GVR,-18.89520072937,-41.982200622559,561.0,airport
478,Araracuara Airport,Araracuara,Colombia,ACR,-0.5833,-72.4083,1250.0,airport
479,Nueva Loja Airport,Lago Agrio,Ecuador,LGQ,0.093056,-76.8675,980.0,airport
480,Tocache Airport,Tocache,Peru,\N,-8.1829996109,-76.516998291,1500.0,airport
481,Capitan Corbeta CA Curbelo International Airport,Punta del Este,Uruguay,PDP,-34.855098724365234,-55.09429931640625,95.0,airport
482,Palmar Airport,Santa Lucia,Peru,\N,-18.97166633605957,-62.97533416748047,1342.0,airport
483,Laguna de Los Patos International Airport,Colonia,Uruguay,CYR,-34.456401824951,-57.770599365234,66.0,airport
484,Amarais Airport,Campinas,Brazil,CPQ,-22.85919952392578,-47.10820007324219,2008.0,airport
485,Zapala Airport,ZAPALA,Argentina,APZ,-38.975498,-70.113602,3330.0,airport
486,Rincon De Los Sauces Airport,Rincon de los Sauces,Argentina,RDS,-37.3905982971,-68.9041976929,1968.0,airport
487,Tte. Julio Gallardo Airport,Puerto Natales,Chile,PNT,-51.67150115966797,-72.52839660644531,217.0,airport
488,Sierra Grande Airport,Sierra Grande,Argentina,SGV,-41.5917015076,-65.33940124509999,688.0,airport
489,Cabo F.A.A. H. R. Bordón Airport,Ingeniero Jacobacci,Argentina,IGB,-41.3208999634,-69.5748977661,2925.0,airport
490,D. Casimiro Szlapelis Airport,Alto Rio Senguer,Argentina,ARR,-45.013599,-70.812202,2286.0,airport
491,Jose De San Martin Airport,Jose de San Martin,Argentina,JSM,-44.0485992432,-70.4589004517,2407.0,airport
492,Uyuni Airport,Uyuni,Bolivia,UYU,-20.4463005066,-66.8483963013,11136.0,airport
493,Rurenabaque Airport,Rerrenabaque,Bolivia,RBQ,-14.4279003143,-67.4968032837,676.0,airport
494,Afobakka Airstrip,Afobaka,Suriname,\N,4.998505,-54.992033,80.0,airport
495,Alalapadu Airstrip,Alapadu,Suriname,\N,2.5235,-56.3247,880.0,airport
496,Albina Airport,Albina,Suriname,ABN,5.512720108032227,-54.05009841918945,19.0,airport
497,Lawa Anapaike Airstrip,Anapaike,Suriname,\N,3.411301,-54.028049,373.0,airport
498,Apetina Airstrip,Apetina,Suriname,\N,3.50278,-55.058791,0.0,airport
499,Drietabbetje Airport,Drietabbetje,Suriname,DRJ,4.111359,-54.672766,236.0,airport
500,Kabalebo Airport,Kabalebo,Suriname,\N,4.406,-57.223,535.0,airport
501,Kayser Airport,Kayser,Suriname,\N,3.094343,-56.472702,849.0,airport
502,Kwamalasoemoetoe Airport,Kwamelasemoetoe,Suriname,\N,2.354427,-56.792431,905.0,airport
503,Moengo Airstrip,Moengo,Suriname,MOJ,5.6076,-54.4003,49.0,airport
504,Nieuw Nickerie Airport,Nieuw Nickerie,Suriname,ICK,5.955560207366943,-57.039398193359375,9.0,airport
505,Vincent Fayks Airport,Paloemeu,Suriname,OEM,3.3452799320220947,-55.442501068115234,714.0,airport
506,Sarakreek Airstrip,Sarakreek,Suriname,\N,4.319444,-54.966667,223.0,airport
507,Sipaliwini Airport,Sipaliwini,Suriname,\N,2.026438,-56.126412,744.0,airport
508,Stoelmanseiland Airport,Stoelmans Eiland,Suriname,SMZ,4.349999904632568,-54.41666793823242,187.0,airport
509,Totness Airport,Totness,Suriname,TOT,5.865829944610596,-56.32749938964844,10.0,airport
510,Wageningen Airstrip,Wageningen,Suriname,AGI,5.841128,-56.673328,6.0,airport
511,Kaieteur International Airport,Kaieteur Falls,Guyana,KIA,5.163333,-59.483333,95.0,airport
512,Orinduik Airport,Orinduik,Guyana,ORJ,4.725269794464111,-60.03499984741211,1797.0,airport
513,Annai Airport,Annai,Guyana,NAI,3.959439992904663,-59.12419891357422,301.0,airport
514,Apoteri Airport,Apoteri,Guyana,\N,4.013879776000977,-58.60499954223633,301.0,airport
515,Imbaimadai Airport,Imbaimadai,Guyana,IMB,5.708109855651856,-60.2942008972168,1646.0,airport
516,Kamarang Airport,Kamarang,Guyana,KAR,5.865340232849121,-60.614200592041016,1601.0,airport
517,Mabaruma Airport,Mabaruma,Guyana,USI,8.199999809265137,-59.78329849243164,45.0,airport
518,Mahdia Airport,Mahdia,Guyana,MHA,5.277490139007568,-59.151100158691406,300.0,airport
519,Dr Augusto Roberto Fuster International Airport,Pedro Juan Caballero,Paraguay,PJC,-22.63999938964844,-55.83000183105469,1873.0,airport
520,Alcides Fernández Airport,Acandi,Colombia,ACD,8.51667,-77.3,50.0,airport
521,Los Colonizadores Airport,Saravena,Colombia,RVE,6.951868,-71.857179,680.0,airport
522,La Chorrera Airport,La Chorrera,Colombia,LCR,-0.733333,-73.016667,10.0,airport
523,Villa Garzón Airport,Villa Garzon,Colombia,VGZ,0.978767,-76.6056,1248.0,airport
524,El Bagre Airport,El Bagre,Colombia,EBG,7.59647,-74.8089,180.0,airport
525,Juan H White Airport,Caucasia,Colombia,CAQ,7.96847,-75.1985,174.0,airport
526,Mandinga Airport,Condoto,Colombia,COG,5.08333,-76.7,213.0,airport
527,Golfo de Morrosquillo Airport,Tolu,Colombia,TLU,9.50945,-75.5854,16.0,airport
528,Cabo Frio Airport,Cabo Frio,Brazil,CFB,-22.921699523900003,-42.0742988586,23.0,airport
529,Presidente João Batista Figueiredo Airport,Sinop,Brazil,OPS,-11.885000228881836,-55.58610916137695,1227.0,airport
530,Gurupi Airport,Gurupi,Brazil,GRP,-11.73960018157959,-49.13219833374024,1148.0,airport
531,Santana do Araguaia Airport,Santana do Araguaia,Brazil,CMP,-9.31997013092041,-50.32849884033203,597.0,airport
532,Breves Airport,Breves,Brazil,BVS,-1.6365300416946411,-50.44359970092773,98.0,airport
533,Soure Airport,Soure,Brazil,SFK,-0.6994310021400452,-48.52099990844727,43.0,airport
534,Parintins Airport,Parintins,Brazil,PIN,-2.6730198860168457,-56.77719879150391,87.0,airport
535,Barreiras Airport,Barreiras,Brazil,BRA,-12.078900337219238,-45.00899887084961,2447.0,airport
536,Santa Terezinha Airport,Santa Terezinha,Brazil,STZ,-10.4647216796875,-50.51861190795898,663.0,airport
537,Minaçu Airport,Minacu,Brazil,MQH,-13.5491,-48.195301,1401.0,airport
538,Araguaína Airport,Araguaina,Brazil,AUX,-7.22787,-48.240501,771.0,airport
539,Novo Aripuanã Airport,Novo Aripuana,Brazil,NVP,-5.118030071258545,-60.36489868164063,118.0,airport
540,Fazenda Colen Airport,Lucas do Rio Verde,Brazil,\N,-13.314443588256836,-56.11277770996094,1345.0,airport
541,Tenente Lund Pressoto Airport,Franca,Brazil,FRC,-20.592199,-47.3829,3292.0,airport
542,Dourados Airport,Dourados,Brazil,DOU,-22.2019,-54.926601,1503.0,airport
543,Lábrea Airport,Labrea,Brazil,LBR,-7.278969764709473,-64.76950073242188,190.0,airport
544,Maestro Marinho Franco Airport,Rondonopolis,Brazil,ROO,-16.586,-54.7248,1467.0,airport
545,Tancredo Thomas de Faria Airport,Guarapuava,Brazil,GPB,-25.3875007629,-51.520198822,3494.0,airport
546,Santa Terezinha Airport,Joacaba,Brazil,JCB,-27.1714000702,-51.5532989502,2546.0,airport
547,General Leite de Castro Airport,Rio Verde,Brazil,RVD,-17.8347225189209,-50.95611190795898,2464.0,airport
548,Romeu Zema Airport,Araxa,Brazil,AAX,-19.563199996948,-46.960399627686,3276.0,airport
549,Maués Airport,Maues,Brazil,MBZ,-3.37217,-57.7248,69.0,airport
550,Borba Airport,Borba,Brazil,RBB,-4.4063401222229,-59.60240173339844,293.0,airport
551,Coari Airport,Coari,Brazil,CIZ,-4.134059906005859,-63.132598876953125,131.0,airport
552,Barcelos Airport,Barcelos,Brazil,BAZ,-0.981292,-62.919601,112.0,airport
553,Diamantino Airport,Diamantino,Brazil,DMT,-14.37689971923828,-56.40039825439453,1476.0,airport
554,Guanambi Airport,Guanambi,Brazil,GNM,-14.208200454711914,-42.74610137939453,1815.0,airport
555,Ponta Pelada Airport,Manaus,Brazil,\N,-3.14604,-59.9863,267.0,airport
556,Sao Gabriel da Cachoeira Airport,Sao Gabriel da Cachoeira,Brazil,\N,-0.148056,-66.9858,251.0,airport
557,Maturacá Airport,Maturaca,Brazil,\N,0.6282690167427063,-66.11509704589844,354.0,airport
558,Carajás Airport,Parauapebas,Brazil,CKS,-6.11527776718,-50.0013885498,2064.0,airport
559,Centro de Lançamento de Alcântara Airport,Alcantara,Brazil,\N,-2.372999906539917,-44.39640045166016,148.0,airport
560,Machu Pichu Airport,Machu Pichu,Peru,MFT,-13.1167,-72.5667,9500.0,airport
561,Valença Airport,Valenca,Brazil,VAL,-13.2965,-38.992401,21.0,airport
562,Dix Sept Rosado Airport,Mossoro,Brazil,\N,-5.20192,-37.3643,76.0,airport
563,Caruaru Airport,Caruaru,Brazil,CAU,-8.282389640808105,-36.01350021362305,1891.0,airport
564,Aeroclube Airport,Nova Iguacu,Brazil,QNV,-22.74530029296875,-43.46030044555664,164.0,airport
565,Cotopaxi International Airport,Latacunga,Ecuador,\N,-0.5425,-78.3657,9205.0,airport
566,Viña del mar Airport,Vina del Mar,Chile,KNA,-32.9496,-71.4786,461.0,airport
567,Guardiamarina Zanartu Airport,Puerto Williams,Chile,\N,-54.9311,-67.6263,88.0,airport
568,General Freire Airport,Curico,Chile,\N,-34.96666717529297,-71.21639251708984,722.0,airport
569,Isla San Felix Airport,Isla San Felix,Chile,\N,-26.29389953613281,-80.09619903564453,165.0,airport
570,Blumenau Airport,BLUMENAU,Brazil,BNU,-26.83060073852539,-49.09030151367188,60.0,airport
571,Zona da Mata Regional Airport,Juiz de Fora,Brazil,IZA,-21.5130558014,-43.1730575562,1348.0,airport
572,Grand-Santi Airport,Grand-Santi,French Guiana,GSI,4.285833,-54.373056,207.0,airport
573,Maripasoula Airport,Maripasoula,French Guiana,MPY,3.6575,-54.037201,406.0,airport
574,Saint-Laurent-du-Maroni Airport,Saint-Laurent-du-Maroni,French Guiana,LDX,5.48306,-54.034401,16.0,airport
575,Capurganá Airport,Capurgana,Colombia,CPB,8.63333,-77.35,49.0,airport
576,Presidente General Don Oscar D. Gestido International Airport,Rivera,Uruguay,RVY,-30.97459983825684,-55.476200103759766,712.0,airport
577,Patos de Minas Airport,Patos de Minas,Brazil,POJ,-18.672800064086918,-46.4911994934082,2793.0,airport
578,Bauru - Arealva Airport,Bauru,Brazil,JTC,-22.1668591409,-49.0502866745,1949.0,airport
579,Ourilândia do Norte Airport,Ourilandia do Norte,Brazil,OIA,-6.763100147250001,-51.0499000549,901.0,airport
580,Redenção Airport,Redencao,Brazil,RDC,-8.033289909362793,-49.97990036010742,670.0,airport
581,São Félix do Xingu Airport,Sao Felix do Xingu,Brazil,SXX,-6.6413,-51.9523,656.0,airport
582,Bonito Airport,Bointo,Brazil,BYO,-21.247299,-56.452499,1180.0,airport
583,São Félix do Araguaia Airport,Sao Felix do Araguaia,Brazil,SXO,-11.632399559020996,-50.68960189819336,650.0,airport
584,Caçador Airport,Cacador,Brazil,CFC,-26.78840065,-50.9398002625,3376.0,airport
585,Carauari Airport,Carauari,Brazil,CAF,-4.871520042419434,-66.89749908447266,355.0,airport
586,Urucu Airport,Porto Urucu,Brazil,\N,-4.88422012329,-65.3554000854,243.0,airport
587,Eirunepé Airport,Eirunepe,Brazil,ERN,-6.639530181884766,-69.87979888916016,412.0,airport
588,Concórdia Airport,Concordia,Brazil,CCI,-27.180599212646484,-52.05270004272461,2461.0,airport
589,Francisco Beltrão Airport,Francisco Beltrao,Brazil,FBE,-26.059200286865234,-53.0634994506836,2100.0,airport
590,Confresa Airport,Confresa,Brazil,CFO,-10.634400367736816,-51.5635986328125,781.0,airport
591,Umuarama Airport,Umuarama,Brazil,UMU,-23.7987003326416,-53.31380081176758,1558.0,airport
592,Diamantina Airport,Diamantina,Brazil,DTI,-18.232000351,-43.6503982544,4446.0,airport
593,Fonte Boa Airport,Fonte Boa,Brazil,FBA,-2.5326099395800004,-66.0831985474,207.0,airport
594,Senadora Eunice Micheles Airport,Sao Paulo de Olivenca,Brazil,OLC,-3.46792950765,-68.9204120636,335.0,airport
595,Humaitá Airport,Humaita,Brazil,HUW,-7.532120227810001,-63.072101593,230.0,airport
596,Tapuruquara Airport,Santa Isabel do Rio Negro,Brazil,IRZ,-0.3786,-64.9923,223.0,airport
597,Oriximiná Airport,Oriximina,Brazil,ORX,-1.714079976081848,-55.83620071411133,262.0,airport
598,Hotel Transamérica Airport,Una,Brazil,UNA,-15.3551998138,-38.9990005493,20.0,airport
599,General Villamil Airport,Isabela,Ecuador,IBB,-0.942628026009,-90.9530029297,35.0,airport
600,Tiputini Airport,Tiputini,Ecuador,TPN,-0.7761110067367554,-75.52639770507812,997.0,airport
601,Rio Amazonas Airport,Pastaza,Ecuador,PTZ,-1.5052399635299998,-78.0626983643,3465.0,airport
602,Robinson Crusoe Airport,San Juan Bautista,Chile,\N,-33.6650009155,-78.9297027588,433.0,airport
603,Termas de Río Hondo international Airport,Rio Hondo,Argentina,RHD,-27.4966,-64.93595,935.0,airport
604,Lorenzo Airport,Morro de Sao Paulo,Brazil,\N,-13.389444351196287,-38.90999984741211,3.0,airport
605,Botucatu - Tancredo de Almeida Neves Airport,Botucatu,Brazil,QCJ,-22.939501,-48.467999,3012.0,airport
606,Base Aérea Airport,Anapolis,Brazil,\N,-16.2292,-48.964298,3731.0,airport
607,Mário Pereira Lopes–São Carlos Airport,Sao Carlos,Brazil,QSC,-21.875401,-47.903703,2649.0,airport
608,Caldera Airport,Caldera,Chile,\N,-27.078100204467773,-70.79530334472656,180.0,airport
609,San Pedro de Atacama Airport,San Pedro de Atacama,Chile,\N,-22.92169952392578,-68.15840148925781,7960.0,airport
610,Copacabana Airport,Copacabana,Bolivia,\N,-16.191099166870117,-69.09559631347656,12591.0,airport
611,Estadual Arthur Siqueira Airport,Braganca Paulista,Brazil,BJP,-22.979162,-46.537508,2887.0,airport
612,Americana Airport,Americana,Brazil,\N,-22.755800247192383,-47.26940155029297,2085.0,airport
613,Washabo Airport,Washabo,Suriname,WSO,5.215277,-57.185302,68.0,airport
614,Bartica A Airport,Bartica,Guyana,GFO,6.358864,-58.655207,3.0,airport
615,Tingo Maria Airport,Tingo Maria,Peru,TGI,-9.133000373840332,-75.94999694824219,2010.0,airport
616,Plínio Alarcom Airport,Tres Lagoas,Brazil,TJL,-20.754199981689,-51.684200286865,1050.0,airport
617,Cacoal Airport,Cacoal,Brazil,OAL,-11.496,-61.4508,778.0,airport
618,Mocopulli Airport,Castro,Chile,MHC,-42.340388,-73.715693,528.0,airport
619,Pouso Alegre Airport,Pouso Alegre,Brazil,PPY,-22.28919982910156,-45.91910171508789,2904.0,airport
620,Brigadeiro Cabral Airport,Divinopolis,Brazil,DIQ,-20.180700302124,-44.870899200439,2608.0,airport
621,Guarapari Airport,Guarapari,Brazil,GUZ,-20.646499633800005,-40.491901397700005,28.0,airport
622,Ubatuba Airport,Ubatuba,Brazil,UBT,-23.44109916687012,-45.07559967041016,13.0,airport
623,Gov Joao Durval Carneiro Airport,Feira de Santana,Brazil,FEC,-12.203056,-38.906667,768.0,airport
624,Jumandy Airport,Tena,Ecuador,TNW,-1.059722,-77.583333,1234.0,airport
625,Morro da Urca Heliport,Rio de Janeiro,Brazil,\N,-22.95166778564453,-43.16583251953125,692.0,airport
626,Paracatu Airport,Paracatu,Brazil,\N,-17.242599487304688,-46.88309860229492,2359.0,airport
627,Das Bandeirinhas Airport,Conselheiro Lafaiete,Brazil,\N,-20.738585,-43.797444,3478.0,airport
628,Janaúba Airport,Janauba,Brazil,\N,-15.732,-43.323102,1732.0,airport
629,Juscelino Kubitscheck Airport,Teofilo Otoni,Brazil,TFL,-17.89229965209961,-41.51359939575195,1572.0,airport
630,Cristiano Ferreira Varella Airport,Muriae,Brazil,\N,-21.126100540161133,-42.39440155029297,886.0,airport
631,Parati Airport,Paraty,Brazil,\N,-23.2243995667,-44.720298767100005,10.0,airport
632,Umberto Modiano Airport,Buzios,Brazil,BZC,-22.770999908447266,-41.96289825439453,10.0,airport
633,Angra dos Reis Airport,Angra dos Reis,Brazil,\N,-22.97529983520508,-44.30709838867188,10.0,airport
634,Itaperuna Airport,Itaperuna,Brazil,ITP,-21.2192993164,-41.8759002686,410.0,airport
635,Maricá Airport,Marica,Brazil,\N,-22.9195,-42.830898,13.0,airport
636,Resende Airport,Resende,Brazil,REZ,-22.4785003662,-44.4803009033,1320.0,airport
637,Saquarema Airport,Saquarema,Brazil,\N,-22.92972183227539,-42.50694274902344,26.0,airport
638,Aripuanã Airport,Aripuana,Brazil,AIR,-10.188278,-59.457273,623.0,airport
639,Juruena Airport,Juruena,Brazil,JRN,-10.305832862854004,-58.489444732666016,525.0,airport
640,Juína Airport,Juina,Brazil,JIA,-11.419444,-58.701668,1083.0,airport
641,Vila Rica Airport,Vila Rica,Brazil,VLP,-9.979443550109863,-51.1422233581543,892.0,airport
642,Inácio Luís do Nascimento Airport,Juara,Brazil,JUA,-11.2966,-57.5495,870.0,airport
643,Cáceres Airport,Caceres,Brazil,CCX,-16.04360008239746,-57.62990188598633,492.0,airport
644,Posto Leonardo Vilas Boas Airport,Chapada dos Guimaraes,Brazil,\N,-12.19833278656006,-53.38166809082031,1083.0,airport
645,Tangará da Serra Airport,Tangara da Serra,Brazil,TGQ,-14.6619997025,-57.4435005188,1460.0,airport
646,Canarana Airport,Canarana,Brazil,CQA,-13.574443817138672,-52.27055740356445,1314.0,airport
647,Vila Bela da Santíssima Trindade Airport,Vila Bela da Santissima Trindade ,Brazil,MTG,-14.9942,-59.9458,660.0,airport
648,Sobral Airport,Sobral,Brazil,\N,-3.67889,-40.336802,210.0,airport
649,Arapiraca Airport,Arapiraca,Brazil,APQ,-9.775360107421877,-36.62919998168945,886.0,airport
650,Cangapara Airport,Floriano,Brazil,FLB,-6.8463897705078125,-43.07730102539063,689.0,airport
651,Picos Airport,Picos,Brazil,PCS,-7.0620598793029785,-41.52370071411133,1050.0,airport
652,Cerro Largo International Airport,Melo,Uruguay,MLZ,-32.33789825439453,-54.21670150756836,364.0,airport
653,Tydeo Larre Borges Airport,Paysandu,Uruguay,PDU,-32.36330032348633,-58.0619010925293,138.0,airport
654,Artigas International Airport,Artigas ,Uruguay,ATI,-30.40069961547852,-56.50790023803711,410.0,airport
655,Francisco de Miranda Airport,Caracas,Venezuela,\N,10.4850330353,-66.8435134888,2739.0,airport
656,São Miguel do Oeste Airport,Sao Miguel do Oeste,Brazil,SQX,-26.78160095214844,-53.50350189208984,2180.0,airport
657,San Sebastián Airport,San Sebastian,Chile,\N,-53.31700134277344,-68.6500015258789,50.0,airport
658,Tolwin Observatory Airport,Tolhuin,Argentina,\N,-54.521900177,-67.1989974976,90.0,airport
659,Las Dunas Airport,Ica,Peru,\N,-14.036111,-75.759722,1358.0,airport
660,Presidente Néstor Kirchner Regionsl Airport,Villa Maria,Argentina,\N,-32.3201,-63.22663,670.0,airport
661,Chafei Amsei Airport,Barretos,Brazil,BAT,-20.584499359131,-48.594100952148,1898.0,airport
662,Base de Aviação de Taubaté Airport,Taubaté,Brazil,QHP,-23.04010009765625,-45.51599884033203,1908.0,airport
663,Barriles Airport,Tocopilla,Chile,TOQ,-22.14109992980957,-70.06289672851562,3475.0,airport
664,Schroeder's field,Cochrane,Chile,\N,35.071718,-91.738801,0.0,airport
665,Chañaral Airport,Chañaral,Chile,CNR,-26.332500457763672,-70.6072998046875,97.0,airport
666,Panguilemo Airport,Talca,Chile,TLX,-35.37779998779297,-71.60169982910156,371.0,airport
667,Victoria Airport,Victoria,Chile,ZIC,-38.245601654052734,-72.34860229492188,1148.0,airport
668,Las Breas Airport,Taltal,Chile,TTC,-25.56430053710937,-70.37590026855469,2580.0,airport
669,Gomez Nino Apiay Air Base,Apiay,Colombia,API,4.07607,-73.5627,1207.0,airport
670,Coveñas Airport,Coveñas,Colombia,CVE,9.40092,-75.6913,31.0,airport
671,German Olano Air Base,La Dorada,Colombia,PAL,5.48361,-74.6574,566.0,airport
672,Paz De Ariporo Airport,Paz De Ariporo,Colombia,PZA,5.87615,-71.8866,900.0,airport
673,Tunja Airport,Tunja,Colombia,\N,5.54138,-73.3445,8940.0,airport
674,Tres Esquinas Air Base,Tres Esquinas,Colombia,TQS,0.7459,-75.234,585.0,airport
675,Marandúa Air Base,Marandúa,Colombia,\N,5.52448,-68.6856,285.0,airport
676,Juan Simons Vela Airport,Rioja,Peru,RIJ,-6.067860126495361,-77.16000366210938,2707.0,airport
677,Shumba Airport,Jaén,Peru,JAE,-5.59248,-78.774002,2477.0,airport
678,Metropolitano Airport,,Venezuela,\N,10.133169174194336,-66.78782653808594,574.0,airport
679,Itapiranga Airport,Itapiranga,Brazil,\N,-27.14249992370605,-53.68579864501953,1247.0,airport
680,Aguas Calientes Airport,Aguas Calientes,Peru,\N,-8.833330154418945,-74.68329620361328,9840.0,airport
681,Jacarepaguá - Roberto Marinho Airport,Rio de Janeiro,Brazil,\N,-22.987499,-43.369999,10.0,airport
682,Hacaritama Airport,Aguachica,Colombia,\N,8.247,-73.5814,545.0,airport
683,Helisul I Heliport,Foz do Iguassu,Brazil,\N,-25.604167938232425,-54.49361038208008,732.0,airport
684,Humberto Ghizzo Bortoluzzi Regional Airport,Jaguaruna,Brazil,JJG,-28.6753,-49.0596,120.0,airport
685,Fazenda Vaticano Airport,Cruz,Brazil,\N,-21.294443,-56.11861,1050.0,airport
686,9 de Maio - Teixeira de Freitas Airport,Teixeira de Freitas,Brazil,TXF,-17.524499893188,-39.66849899292,344.0,airport
687,Ponta Grossa Airport - Comandante Antonio Amilton Beraldo,Ponta Grossa,Brazil,PGZ,-25.1847,-50.1441,2588.0,airport
688,Olhos D`água Airport,Agua Boa,Brazil,\N,-14.019444,-52.152222,1506.0,airport
689,Novo Progresso Airport,Novo Progresso,Brazil,NPR,-7.125833,-55.400833,794.0,airport
690,Adolino Bedin Regional Airport,Sorriso,Brazil,SMT,-12.479177,-55.672341,1266.0,airport
691,Serra da Capivara Airport,Sao Raimundo Nonato,Brazil,\N,-9.082778,-42.644444,1362.0,airport
692,Encarnación Airport,Encarnacion,Paraguay,ENO,-27.227366,-55.837495,659.0,airport
693,Amatopo Airstrip,Amatopo,Suriname,\N,3.547885,-57.633958,0.0,airport
694,Poeketi Airstrip,Poeketi,Suriname,\N,4.126389,-54.623611,0.0,airport
695,Godo Holo Airstrip,Pikienkondre of Miranda,Suriname,\N,4.0583,-54.7861,280.0,airport
696,Pimenta Bueno Airport,Pimenta Bueno,Brazil,PBQ,-11.641599655151367,-61.17910003662109,682.0,airport
697,Ariquemes Airport,ARIQUEMES,Brazil,\N,-9.884721755981444,-63.04888916015625,530.0,airport
698,Fazenda Spartacus Airport,COLNIZA,Brazil,\N,-24.0,-48.60833358764648,2346.0,airport
699,Fazenda Mequens Airport,ALTA FLORESTA D'OESTE,Brazil,\N,-13.061944007873535,-62.25749969482422,552.0,airport
700,Prainha Airport,APUI,Brazil,\N,-7.17287015914917,-59.839599609375,197.0,airport
701,Mostardas Airport,SANTO ANTONIO DO MATUPI,Brazil,\N,-31.103599548339844,-50.910301208496094,59.0,airport
702,Santo Domingo Airport,CONSELVAN,Brazil,\N,-33.65639877319336,-71.6144027709961,246.0,airport
703,Fazenda Várzea Funda Airport,PRIMAVERA D'OESTE,Brazil,\N,-16.58361053466797,-57.73222351074219,709.0,airport
704,Primavera do Leste Airport,PRIMAVERA DO LESTE,Brazil,\N,-15.565555572509766,-54.33777618408203,2149.0,airport
705,Comte. Rolim Adolfo Amaro–Jundiaí State Airport,Jundiai,Brazil,\N,-23.180369,-46.944408,2484.0,airport
706,Helisul IV Heliport,Foz Do Iguacu,Brazil,\N,-25.613056182861328,-54.39805603027344,676.0,airport
707,Fazenda Jatobasso Airport,JARU,Brazil,\N,-22.42916679382324,-55.53333282470703,2152.0,airport
708,FIC Heliport,MACHADINHO D'OESTE,Brazil,\N,-22.711389541625977,-47.141109466552734,1985.0,airport
709,Fazenda São Nicolau Airport,COTRIGUACU,Brazil,\N,-9.8644437789917,-58.229167938232,738.0,airport
710,Sunchales Aeroclub Airport,Sunchales,Argentina,NCJ,-30.9575,-61.5283,311.0,airport
711,Augusto Severo Airport,Natal,Brazil,\N,-5.91141986847,-35.2476997375,169.0,airport
712,Flores Airport,MANAUS,Brazil,\N,-3.0727779865264893,-60.02111053466797,203.0,airport
713,La Araucanía Airport,Temuco,Chile,ZCO,-38.9259,-72.6515,333.0,airport
714,Fazenda Uiapuru Airport,COMODORO,Brazil,\N,-13.663888931274414,-56.002220153808594,1519.0,airport
715,Fazenda Kajussol Airport,Alta Floresta D'Oeste,Brazil,\N,-11.9647216796875,-61.686668395996094,636.0,airport
716,Costa Marques Airport,COSTA MARQUES,Brazil,CQS,-12.421099662780762,-64.25160217285156,555.0,airport
717,Desierto de Atacama Airport,Copiapo,Chile,CPO,-27.2611999512,-70.7791976929,670.0,airport
